{
  "type": "FeatureCollection",
  "features": [
    {
      "type": "Feature",
      "properties": {
        "norad_id": 67109,
        "name": "STARLINK-35764",
        "group": "last-30-days",
        "lat": -20.591817111929494,
        "lon": -135.7643382013775,
        "alt_km": 305.7573757298642,
        "timestamp": "2025-12-23T22:42:31.704773+00:00",
        "meta_object_name": "STARLINK-35764",
        "meta_object_id": "2025-299H",
        "meta_epoch": "2025-12-23T06:00:00.999648",
        "meta_mean_motion": 15.91647836,
        "meta_eccentricity": 0.00018528,
        "meta_inclination": 42.9981,
        "meta_ra_of_asc_node": 252.3365,
        "meta_arg_of_pericenter": 275.3309,
        "meta_mean_anomaly": 22.9455,
        "meta_ephemeris_type": 0,
        "meta_classification_type": "U",
        "meta_norad_cat_id": 67109,
        "meta_element_set_no": 999,
        "meta_rev_at_epoch": 239,
        "meta_bstar": -0.0059119801,
        "meta_mean_motion_dot": -0.01983394,
        "meta_mean_motion_ddot": 0.0010597986,
        "tle_line1": "1 67109U 25299H   25357.25001157 -.01983394  10598-2 -59120-2 0  9996",
        "tle_line2": "2 67109  42.9981 252.3365 0001852 275.3309  22.9455 15.91647836  2390"
      },
      "geometry": {
        "type": "Point",
        "coordinates": [
          -135.7643382013775,
          -20.591817111929494
        ]
      }
    },
    {
      "type": "Feature",
      "properties": {
        "norad_id": 67110,
        "name": "STARLINK-35781",
        "group": "last-30-days",
        "lat": -18.367579679599057,
        "lon": -132.86887881283792,
        "alt_km": 305.78565891042035,
        "timestamp": "2025-12-23T22:42:31.704785+00:00",
        "meta_object_name": "STARLINK-35781",
        "meta_object_id": "2025-299J",
        "meta_epoch": "2025-12-23T06:00:00.999648",
        "meta_mean_motion": 15.91662318,
        "meta_eccentricity": 0.00020517,
        "meta_inclination": 42.9981,
        "meta_ra_of_asc_node": 252.3277,
        "meta_arg_of_pericenter": 268.271,
        "meta_mean_anomaly": 33.5119,
        "meta_ephemeris_type": 0,
        "meta_classification_type": "U",
        "meta_norad_cat_id": 67110,
        "meta_element_set_no": 999,
        "meta_rev_at_epoch": 245,
        "meta_bstar": -0.0059426018,
        "meta_mean_motion_dot": -0.01995087,
        "meta_mean_motion_ddot": 0.001071655,
        "tle_line1": "1 67110U 25299J   25357.25001157 -.01995087  10717-2 -59426-2 0  9992",
        "tle_line2": "2 67110  42.9981 252.3277 0002051 268.2710  33.5119 15.91662318  2457"
      },
      "geometry": {
        "type": "Point",
        "coordinates": [
          -132.86887881283792,
          -18.367579679599057
        ]
      }
    },
    {
      "type": "Feature",
      "properties": {
        "norad_id": 67111,
        "name": "STARLINK-35875",
        "group": "last-30-days",
        "lat": -19.44798123714811,
        "lon": -134.25750006235629,
        "alt_km": 305.7392934486379,
        "timestamp": "2025-12-23T22:42:31.704797+00:00",
        "meta_object_name": "STARLINK-35875",
        "meta_object_id": "2025-299K",
        "meta_epoch": "2025-12-23T06:00:00.999648",
        "meta_mean_motion": 15.9165367,
        "meta_eccentricity": 0.00018753,
        "meta_inclination": 42.9982,
        "meta_ra_of_asc_node": 252.3322,
        "meta_arg_of_pericenter": 273.6933,
        "meta_mean_anomaly": 26.401,
        "meta_ephemeris_type": 0,
        "meta_classification_type": "U",
        "meta_norad_cat_id": 67111,
        "meta_element_set_no": 999,
        "meta_rev_at_epoch": 239,
        "meta_bstar": -0.0059278727,
        "meta_mean_motion_dot": -0.01989259,
        "meta_mean_motion_ddot": 0.0010657213,
        "tle_line1": "1 67111U 25299K   25357.25001157 -.01989259  10657-2 -59279-2 0  9996",
        "tle_line2": "2 67111  42.9982 252.3322 0001875 273.6933  26.4010 15.91653670  2395"
      },
      "geometry": {
        "type": "Point",
        "coordinates": [
          -134.25750006235629,
          -19.44798123714811
        ]
      }
    },
    {
      "type": "Feature",
      "properties": {
        "norad_id": 67112,
        "name": "STARLINK-35906",
        "group": "last-30-days",
        "lat": -17.463090468003376,
        "lon": -131.72902921029595,
        "alt_km": 305.7137476557218,
        "timestamp": "2025-12-23T22:42:31.704808+00:00",
        "meta_object_name": "STARLINK-35906",
        "meta_object_id": "2025-299L",
        "meta_epoch": "2025-12-23T06:00:00.999648",
        "meta_mean_motion": 15.91677521,
        "meta_eccentricity": 0.00020106,
        "meta_inclination": 42.9982,
        "meta_ra_of_asc_node": 252.3243,
        "meta_arg_of_pericenter": 268.2889,
        "meta_mean_anomaly": 34.8713,
        "meta_ephemeris_type": 0,
        "meta_classification_type": "U",
        "meta_norad_cat_id": 67112,
        "meta_element_set_no": 999,
        "meta_rev_at_epoch": 239,
        "meta_bstar": -0.0059375764,
        "meta_mean_motion_dot": -0.01994957,
        "meta_mean_motion_ddot": 0.0010716864,
        "tle_line1": "1 67112U 25299L   25357.25001157 -.01994957  10717-2 -59376-2 0  9993",
        "tle_line2": "2 67112  42.9982 252.3243 0002010 268.2889  34.8713 15.91677521  2394"
      },
      "geometry": {
        "type": "Point",
        "coordinates": [
          -131.72902921029595,
          -17.463090468003376
        ]
      }
    },
    {
      "type": "Feature",
      "properties": {
        "norad_id": 67113,
        "name": "STARLINK-35789",
        "group": "last-30-days",
        "lat": -16.485863851849484,
        "lon": -130.5195887317484,
        "alt_km": 305.82552092855894,
        "timestamp": "2025-12-23T22:42:31.704818+00:00",
        "meta_object_name": "STARLINK-35789",
        "meta_object_id": "2025-299M",
        "meta_epoch": "2025-12-23T06:00:00.999648",
        "meta_mean_motion": 15.91693017,
        "meta_eccentricity": 0.00016098,
        "meta_inclination": 42.998,
        "meta_ra_of_asc_node": 252.3204,
        "meta_arg_of_pericenter": 266.8703,
        "meta_mean_anomaly": 37.786,
        "meta_ephemeris_type": 0,
        "meta_classification_type": "U",
        "meta_norad_cat_id": 67113,
        "meta_element_set_no": 999,
        "meta_rev_at_epoch": 239,
        "meta_bstar": -0.0059582445,
        "meta_mean_motion_dot": -0.02003265,
        "meta_mean_motion_ddot": 0.0010802097,
        "tle_line1": "1 67113U 25299M   25357.25001157 -.02003265  10802-2 -59582-2 0  9992",
        "tle_line2": "2 67113  42.9980 252.3204 0001609 266.8703  37.7860 15.91693017  2395"
      },
      "geometry": {
        "type": "Point",
        "coordinates": [
          -130.5195887317484,
          -16.485863851849484
        ]
      }
    },
    {
      "type": "Feature",
      "properties": {
        "norad_id": 67114,
        "name": "STARLINK-36180",
        "group": "last-30-days",
        "lat": -15.311208149474169,
        "lon": -129.0921600448137,
        "alt_km": 305.8484964312456,
        "timestamp": "2025-12-23T22:42:31.704828+00:00",
        "meta_object_name": "STARLINK-36180",
        "meta_object_id": "2025-299N",
        "meta_epoch": "2025-12-23T06:00:00.999648",
        "meta_mean_motion": 15.91697809,
        "meta_eccentricity": 0.00017824,
        "meta_inclination": 42.9982,
        "meta_ra_of_asc_node": 252.3161,
        "meta_arg_of_pericenter": 262.5998,
        "meta_mean_anomaly": 43.8556,
        "meta_ephemeris_type": 0,
        "meta_classification_type": "U",
        "meta_norad_cat_id": 67114,
        "meta_element_set_no": 999,
        "meta_rev_at_epoch": 250,
        "meta_bstar": -0.0059631279,
        "meta_mean_motion_dot": -0.02005433,
        "meta_mean_motion_ddot": 0.0010824492,
        "tle_line1": "1 67114U 25299N   25357.25001157 -.02005433  10824-2 -59631-2 0  9991",
        "tle_line2": "2 67114  42.9982 252.3161 0001782 262.5998  43.8556 15.91697809  2507"
      },
      "geometry": {
        "type": "Point",
        "coordinates": [
          -129.0921600448137,
          -15.311208149474169
        ]
      }
    },
    {
      "type": "Feature",
      "properties": {
        "norad_id": 67115,
        "name": "STARLINK-35892",
        "group": "last-30-days",
        "lat": -14.29548668117027,
        "lon": -127.87999584684927,
        "alt_km": 305.330895669088,
        "timestamp": "2025-12-23T22:42:31.704838+00:00",
        "meta_object_name": "STARLINK-35892",
        "meta_object_id": "2025-299P",
        "meta_epoch": "2025-12-23T06:00:00.999648",
        "meta_mean_motion": 15.91701827,
        "meta_eccentricity": 0.00018917,
        "meta_inclination": 42.9982,
        "meta_ra_of_asc_node": 252.3121,
        "meta_arg_of_pericenter": 273.4071,
        "meta_mean_anomaly": 34.571,
        "meta_ephemeris_type": 0,
        "meta_classification_type": "U",
        "meta_norad_cat_id": 67115,
        "meta_element_set_no": 999,
        "meta_rev_at_epoch": 239,
        "meta_bstar": -0.0059187563,
        "meta_mean_motion_dot": -0.01991146,
        "meta_mean_motion_ddot": 0.0010681212,
        "tle_line1": "1 67115U 25299P   25357.25001157 -.01991146  10681-2 -59188-2 0  9994",
        "tle_line2": "2 67115  42.9982 252.3121 0001891 273.4071  34.5710 15.91701827  2390"
      },
      "geometry": {
        "type": "Point",
        "coordinates": [
          -127.87999584684927,
          -14.29548668117027
        ]
      }
    }
  ]
}